LS3C                    
1 56214U 23054AN  23118.52955525  .00015600  00000+0  65544-3 0  9993
2 56214  97.4091  14.2033 0015475 174.0404 186.1020 15.23412497  2621
VCUB1                   
1 56215U 23054AP  23117.81581742  .00017399  00000+0  74592-3 0  9991
2 56215  97.4092  13.4792 0011836 168.7785 191.3717 15.22749611  2435
2023-054AQ              
1 56216U 23054AQ  23117.81962120  .00014346  00000+0  64482-3 0  9991
2 56216  97.4083  13.4739 0007855 176.8690 183.2596 15.21213273  2410
2023-054AR              
1 56217U 23054AR  23117.62113929  .00016112  00000+0  70393-3 0  9997
2 56217  97.4122  13.2863 0011332 190.1872 169.9136 15.22127920  2489
2023-054AS              
1 56218U 23054AS  23117.62157168  .00011267  00000+0  50228-3 0  9992
2 56218  97.4065  13.2758 0009454 181.9614 178.1586 15.21539789  2483
FENGYUN 3G              
1 56232U 23055A   23118.10873927 -.00000468  00000+0  00000+0 0  9992
2 56232  49.9965 135.6289 0006341 334.2234 143.0982 15.52550999  1874
STARLINK-30096          
1 56286U 23056A   23117.55975929  .00906836  00000+0  37083-2 0  9992
2 56286  43.0013 154.1022 0002817   9.0871 351.0052 15.82964503  2526
STARLINK-30107          
1 56287U 23056B   23118.58334491 -.01028648  00000+0 -12450-1 0  9999
2 56287  43.0023 148.5196 0001583 276.6245 245.2675 15.62622676  1303
STARLINK-30106          
1 56288U 23056C   23118.58334491 -.00793439  00000+0 -91807-2 0  9990
2 56288  43.0022 148.5151 0001427 279.1820 244.5136 15.63501147  1302
STARLINK-30095          
1 56289U 23056D   23118.58334491  .00215393  00000+0  13686-2 0  9996
2 56289  43.0022 148.1924 0001511 304.6219 349.1954 15.75059091  1306
STARLINK-30103          
1 56290U 23056E   23118.58334491 -.00762682  00000+0 -87743-2 0  9993
2 56290  43.0023 148.5154 0001188 272.0385 251.4779 15.63550553  1306
STARLINK-30113          
1 56291U 23056F   23118.58334491 -.00984187  00000+0 -11865-1 0  9991
2 56291  43.0023 148.5175 0001280 273.5519 249.1804 15.62603306  1305
STARLINK-30098          
1 56292U 23056G   23118.58334491 -.01059644  00000+0 -12648-1 0  9994
2 56292  43.0024 148.5152 0001656 274.1132 249.5002 15.62625892  1305
STARLINK-30090          
1 56293U 23056H   23118.58334491 -.01098353  00000+0 -13107-1 0  9996
2 56293  43.0023 148.5167 0001765 276.9001 246.3165 15.62719796  1309
STARLINK-30049          
1 56294U 23056J   23118.58334491 -.00634644  00000+0 -70697-2 0  9993
2 56294  43.0022 148.5102 0001302 276.1734 249.5808 15.63960483  1301
STARLINK-30083          
1 56295U 23056K   23118.58334491  .00476214  00000+0  28416-2 0  9991
2 56295  43.0021 148.1853 0001234 307.8082 348.9169 15.75752476  1300
STARLINK-30089          
1 56296U 23056L   23118.58334491  .00247346  00000+0  14598-2 0  9990
2 56296  43.0018 148.1572 0000959 318.7662 349.2098 15.76646939  1305
STARLINK-30086          
1 56297U 23056M   23118.58334491 -.00634877  00000+0 -70604-2 0  9992
2 56297  43.0024 148.5071 0001302 276.5212 250.5868 15.64003456  1303
STARLINK-30109          
1 56298U 23056N   23118.58334491 -.00634787  00000+0 -70671-2 0  9997
2 56298  43.0026 148.5093 0001297 273.7810 252.5744 15.63975832  1306
STARLINK-30108          
1 56299U 23056P   23118.58334491 -.00636463  00000+0 -65170-2 0  9999
2 56299  43.0026 148.4765 0001353 280.5345 260.3353 15.66062435  1306
STARLINK-30104          
1 56300U 23056Q   23118.58334491 -.01189587  00000+0 -14179-1 0  9995
2 56300  43.0029 148.5104 0001393 275.1568 250.5767 15.62963851  1309
STARLINK-30101          
1 56301U 23056R   23118.58334491 -.01188519  00000+0 -14160-1 0  9990
2 56301  43.0028 148.5099 0001464 273.4428 252.5818 15.62971911  1302
STARLINK-30111          
1 56302U 23056S   23118.58334491 -.00635403  00000+0 -70572-2 0  9999
2 56302  43.0028 148.5046 0001295 275.8588 252.3486 15.64037297  1301
STARLINK-30097          
1 56303U 23056T   23118.58334491 -.00635332  00000+0 -70588-2 0  9998
2 56303  43.0027 148.5054 0001308 278.7540 249.1899 15.64028489  1300
STARLINK-30099          
1 56304U 23056U   23118.58334491 -.00790541  00000+0 -90586-2 0  9993
2 56304  43.0027 148.5042 0001346 276.2985 252.0538 15.63737264  1306
STARLINK-30094          
1 56305U 23056V   23118.58334491 -.00635077  00000+0 -70462-2 0  9997
2 56305  43.0026 148.5022 0001293 271.7934 257.2384 15.64062522  1304
STARLINK-30112          
1 56306U 23056W   23118.58334491 -.00635799  00000+0 -70596-2 0  9997
2 56306  43.0027 148.5039 0001272 271.9328 256.5674 15.64045745  1302
2023-057A               
1 56308U 23057A   23116.83940054  .00000661  00000+0  00000+0 0  9996
2 56308   9.8871 277.2923 0023317 274.2324  85.5281 14.88309695   674
2023-057B               
1 56309U 23057B   23117.01969031  .00000685  00000+0  00000+0 0  9990
2 56309   9.9918 275.8022 0007715  66.5885 293.5581 14.94978547   691
2023-057C               
1 56310U 23057C   23118.02290321  .00000680  00000+0  00000+0 0  9998
2 56310   9.9844 268.6086 0005998  50.4969 309.4096 14.94303504   847
ARKSAT 1                
1 56311U 98067VC  23118.54348687  .00051813  00000+0  86173-3 0  9991
2 56311  51.6391 214.5332 0007876 280.7453  79.2649 15.51503903   649
AURORASAT               
1 56312U 98067VD  23118.54353587  .00052794  00000+0  87826-3 0  9992
2 56312  51.6390 214.5335 0007783 280.3627  79.6485 15.51489414   673
EX-ALTA-2               
1 56313U 98067VE  23118.54358447  .00052906  00000+0  88077-3 0  9997
2 56313  51.6391 214.5341 0007733 279.9290  80.0826 15.51468753   664
LIGHTCUBE               
1 56314U 98067VF  23118.54408398  .00058649  00000+0  98062-3 0  9994
2 56314  51.6389 214.5369 0007832 263.9008  96.1090 15.51301641   698
NEUDOSE                 
1 56315U 98067VG  23118.54419711  .00042131  00000+0  71098-3 0  9995
2 56315  51.6387 214.5374 0007973 263.1030  96.9053 15.51186325   648
YUKONSAT                
1 56316U 98067VH  23118.54421730  .00048733  00000+0  82002-3 0  9991
2 56316  51.6387 214.5375 0007828 262.8353  97.1747 15.51203157   661
